{
  "coffeePlaces": [
    {
      "lat": 52.5299353,
      "lon": 13.4106932,
      "uid": 4974073,
      "id": 1935018843,
      "addr:city": "Berlin",
      "addr:country": "DE",
      "addr:housenumber": 8,
      "addr:postcode": 10119,
      "addr:street": "Schönhauser Allee",
      "addr:suburb": "Prenzlauer Berg",
      "amenity": "cafe",
      "branch": "Roastery",
      "brand": "The Barn",
      "brand:wikidata": "Q110545264",
      "cuisine": "coffee_shop",
      "diet:vegetarian": true,
      "drink:espresso": "served",
      "drink:filter_coffee": "served",
      "drinking_water": true,
      "internet_access": false,
      "microroasting": true,
      "name": "The Barn",
      "opening_hours": "Mo-Fr 08:30-18:00; Sa-Su 10:00-18:00",
      "outdoor_seating": true,
      "payment:credit_cards": true,
      "payment:debit_cards": true,
      "stroller": false,
      "takeaway": true,
      "toilets:wheelchair": false,
      "wheelchair": true,
      "website": "https://thebarn.de/pages/cafe-roastery"
    },
    {
      "lat": 52.5441717,
      "lon": 13.4220194,
      "uid": 1497225,
      "id": 7274447383,
      "addr:city": "Berlin",
      "addr:country": "DE",
      "addr:housenumber": 73,
      "addr:postcode": 10437,
      "addr:street": "Dunckerstraße",
      "addr:suburb": "Prenzlauer Berg",
      "amenity": "cafe",
      "name": "Kajumi",
      "opening_hours": "Tu-Fr 08:00-18:00; Sa 09:30-18:00; Su 10:30-18:00"
    },
    {
      "id": 9633744539,
      "uid": 15478115,
      "lat": 52.5349522,
      "lon": 13.4221493,
      "addr:housenumber": 37,
      "addr:street": "Prenzlauer Allee",
      "amenity": "cafe",
      "description": "Café mit Kaffeverkauf",
      "name": "Cebe Coffee Roasters",
      "phone": "+493037474970",
      "website": "https://www.cebecoffeeroasters.com/"
    }
  ]
}